{"type": "FeatureCollection", "features": [ {"type": "Feature", "properties": {"norad_id": 42741, "name": "EUTELSAT 172B", "group": "eutelsat", "lat": 0.006144597596400501, "lon": -9.088747511703739, "alt_km": 35786.394439624004, "timestamp": "2025-12-02T07:10:08.781107+00:00", "meta": {"OBJECT_NAME": "EUTELSAT 172B", "OBJECT_ID": "2017-029B", "EPOCH": "2025-12-01T14:37:57.912384", "MEAN_MOTION": 1.00271035, "ECCENTRICITY": 1.03e-05, "INCLINATION": 0.001, "RA_OF_ASC_NODE": 358.3904, "ARG_OF_PERICENTER": 244.8578, "MEAN_ANOMALY": 218.9678, "EPHEMERIS_TYPE": 0, "CLASSIFICATION_TYPE": "U", "NORAD_CAT_ID": 42741, "ELEMENT_SET_NO": 999, "REV_AT_EPOCH": 3175, "BSTAR": 0, "MEAN_MOTION_DOT": 1.6e-07, "MEAN_MOTION_DDOT": 0}, "tle": {"line1": "1 42741U 17029B   25335.60969806  .00000016  00000+0  00000+0 0  9994", "line2": "2 42741   0.0010 358.3904 0000103 244.8578 218.9678  1.00271035 31751"}}, "geometry": {"type": "Point", "coordinates": [-9.088747511703739, 0.006144597596400501]}}, {"type": "Feature", "properties": {"norad_id": 44334, "name": "EUTELSAT 7C", "group": "eutelsat", "lat": -0.01973896696778853, "lon": -174.12412950059732, "alt_km": 35777.216044097855, "timestamp": "2025-12-02T07:10:08.781119+00:00", "meta": {"OBJECT_NAME": "EUTELSAT 7C", "OBJECT_ID": "2019-034B", "EPOCH": "2025-12-01T18:58:59.572128", "MEAN_MOTION": 1.00269156, "ECCENTRICITY": 0.0003347, "INCLINATION": 0.0765, "RA_OF_ASC_NODE": 182.3559, "ARG_OF_PERICENTER": 50.9471, "MEAN_ANOMALY": 129.3458, "EPHEMERIS_TYPE": 0, "CLASSIFICATION_TYPE": "U", "NORAD_CAT_ID": 44334, "ELEMENT_SET_NO": 999, "REV_AT_EPOCH": 485, "BSTAR": 0, "MEAN_MOTION_DOT": 6.9e-07, "MEAN_MOTION_DDOT": 0}, "tle": {"line1": "1 44334U 19034B   25335.79096727  .00000069  00000+0  00000+0 0  9993", "line2": "2 44334   0.0765 182.3559 0003347  50.9471 129.3458  1.00269156  4853"}}, "geometry": {"type": "Point", "coordinates": [-174.12412950059732, -0.01973896696778853]}}, {"type": "Feature", "properties": {"norad_id": 44624, "name": "EUTELSAT 5 WEST B", "group": "eutelsat", "lat": -0.05067107251755089, "lon": 173.88212481715803, "alt_km": 35782.504838456414, "timestamp": "2025-12-02T07:10:08.781131+00:00", "meta": {"OBJECT_NAME": "EUTELSAT 5 WEST B", "OBJECT_ID": "2019-067A", "EPOCH": "2025-12-01T18:55:37.396128", "MEAN_MOTION": 1.00272608, "ECCENTRICITY": 0.0003618, "INCLINATION": 0.0736, "RA_OF_ASC_NODE": 325.104, "ARG_OF_PERICENTER": 286.2446, "MEAN_ANOMALY": 98.4679, "EPHEMERIS_TYPE": 0, "CLASSIFICATION_TYPE": "U", "NORAD_CAT_ID": 44624, "ELEMENT_SET_NO": 999, "REV_AT_EPOCH": 2245, "BSTAR": 0, "MEAN_MOTION_DOT": -2e-07, "MEAN_MOTION_DDOT": 0}, "tle": {"line1": "1 44624U 19067A   25335.78862727 -.00000020  00000+0  00000+0 0  9999", "line2": "2 44624   0.0736 325.1040 0003618 286.2446  98.4679  1.00272608 22455"}}, "geometry": {"type": "Point", "coordinates": [173.88212481715803, -0.05067107251755089]}}, {"type": "Feature", "properties": {"norad_id": 45027, "name": "EUTELSAT KONNECT", "group": "eutelsat", "lat": 0.04487375008352597, "lon": -173.92300170176014, "alt_km": 35788.61042107113, "timestamp": "2025-12-02T07:10:08.781143+00:00", "meta": {"OBJECT_NAME": "EUTELSAT KONNECT", "OBJECT_ID": "2020-005B", "EPOCH": "2025-12-01T18:59:07.061280", "MEAN_MOTION": 1.0026766, "ECCENTRICITY": 0.0001693, "INCLINATION": 0.0676, "RA_OF_ASC_NODE": 98.9415, "ARG_OF_PERICENTER": 188.8252, "MEAN_ANOMALY": 75.1077, "EPHEMERIS_TYPE": 0, "CLASSIFICATION_TYPE": "U", "NORAD_CAT_ID": 45027, "ELEMENT_SET_NO": 999, "REV_AT_EPOCH": 2234, "BSTAR": 0, "MEAN_MOTION_DOT": 7e-07, "MEAN_MOTION_DDOT": 0}, "tle": {"line1": "1 45027U 20005B   25335.79105395  .00000070  00000+0  00000+0 0  9997", "line2": "2 45027   0.0676  98.9415 0001693 188.8252  75.1077  1.00267660 22344"}}, "geometry": {"type": "Point", "coordinates": [-173.92300170176014, 0.04487375008352597]}}, {"type": "Feature", "properties": {"norad_id": 49056, "name": "EUTELSAT QUANTUM", "group": "eutelsat", "lat": -0.02813533010252451, "lon": -133.40143734537153, "alt_km": 35773.54612608845, "timestamp": "2025-12-02T07:10:08.781160+00:00", "meta": {"OBJECT_NAME": "EUTELSAT QUANTUM", "OBJECT_ID": "2021-069B", "EPOCH": "2025-12-01T19:10:35.961312", "MEAN_MOTION": 1.00271983, "ECCENTRICITY": 0.0003679, "INCLINATION": 0.0143, "RA_OF_ASC_NODE": 359.0602, "ARG_OF_PERICENTER": 264.7647, "MEAN_ANOMALY": 142.448, "EPHEMERIS_TYPE": 0, "CLASSIFICATION_TYPE": "U", "NORAD_CAT_ID": 49056, "ELEMENT_SET_NO": 999, "REV_AT_EPOCH": 1594, "BSTAR": 0, "MEAN_MOTION_DOT": 1.47e-06, "MEAN_MOTION_DDOT": 0}, "tle": {"line1": "1 49056U 21069B   25335.79902733  .00000147  00000+0  00000+0 0  9990", "line2": "2 49056   0.0143 359.0602 0003679 264.7647 142.4480  1.00271983 15943"}}, "geometry": {"type": "Point", "coordinates": [-133.40143734537153, -0.02813533010252451]}}, {"type": "Feature", "properties": {"norad_id": 53765, "name": "EUTELSAT KONNECT VHTS", "group": "eutelsat", "lat": 0.03500108347679003, "lon": -178.41498172191808, "alt_km": 35776.26229596135, "timestamp": "2025-12-02T07:10:08.781172+00:00", "meta": {"OBJECT_NAME": "EUTELSAT KONNECT VHTS", "OBJECT_ID": "2022-110A", "EPOCH": "2025-12-01T10:21:38.859264", "MEAN_MOTION": 1.00269432, "ECCENTRICITY": 0.00031139, "INCLINATION": 0.0567, "RA_OF_ASC_NODE": 108.6936, "ARG_OF_PERICENTER": 110.2921, "MEAN_ANOMALY": 9.6774, "EPHEMERIS_TYPE": 0, "CLASSIFICATION_TYPE": "U", "NORAD_CAT_ID": 53765, "ELEMENT_SET_NO": 999, "REV_AT_EPOCH": 484, "BSTAR": 0, "MEAN_MOTION_DOT": 3.9e-07, "MEAN_MOTION_DDOT": 0}, "tle": {"line1": "1 53765U 22110A   25335.43169976  .00000039  00000+0  00000+0 0  9995", "line2": "2 53765   0.0567 108.6936 0003113 110.2921   9.6774  1.00269432  4849"}}, "geometry": {"type": "Point", "coordinates": [-178.41498172191808, 0.03500108347679003]}}, {"type": "Feature", "properties": {"norad_id": 54048, "name": "EUTELSAT HOTBIRD 13F", "group": "eutelsat", "lat": -0.0737102939766703, "lon": -168.0897435503407, "alt_km": 35794.08463680243, "timestamp": "2025-12-02T07:10:08.781183+00:00", "meta": {"OBJECT_NAME": "EUTELSAT HOTBIRD 13F", "OBJECT_ID": "2022-134A", "EPOCH": "2025-12-01T15:35:14.925984", "MEAN_MOTION": 1.00270959, "ECCENTRICITY": 0.0001929, "INCLINATION": 0.0544, "RA_OF_ASC_NODE": 288.7983, "ARG_OF_PERICENTER": 67.722, "MEAN_ANOMALY": 321.0618, "EPHEMERIS_TYPE": 0, "CLASSIFICATION_TYPE": "U", "NORAD_CAT_ID": 54048, "ELEMENT_SET_NO": 999, "REV_AT_EPOCH": 1139, "BSTAR": 0, "MEAN_MOTION_DOT": 1.09e-06, "MEAN_MOTION_DDOT": 0}, "tle": {"line1": "1 54048U 22134A   25335.64947831  .00000109  00000+0  00000+0 0  9991", "line2": "2 54048   0.0544 288.7983 0001929  67.7220 321.0618  1.00270959 11394"}}, "geometry": {"type": "Point", "coordinates": [-168.0897435503407, -0.0737102939766703]}}, {"type": "Feature", "properties": {"norad_id": 54225, "name": "EUTELSAT HOTBIRD 13G", "group": "eutelsat", "lat": -0.0493322841334533, "lon": -168.08574451017506, "alt_km": 35777.56963759243, "timestamp": "2025-12-02T07:10:08.781195+00:00", "meta": {"OBJECT_NAME": "EUTELSAT HOTBIRD 13G", "OBJECT_ID": "2022-146A", "EPOCH": "2025-12-01T15:35:14.925984", "MEAN_MOTION": 1.0027091, "ECCENTRICITY": 0.0002093, "INCLINATION": 0.0473, "RA_OF_ASC_NODE": 238.5153, "ARG_OF_PERICENTER": 304.5524, "MEAN_ANOMALY": 134.5091, "EPHEMERIS_TYPE": 0, "CLASSIFICATION_TYPE": "U", "NORAD_CAT_ID": 54225, "ELEMENT_SET_NO": 999, "REV_AT_EPOCH": 548, "BSTAR": 0, "MEAN_MOTION_DOT": 1.09e-06, "MEAN_MOTION_DDOT": 0}, "tle": {"line1": "1 54225U 22146A   25335.64947831  .00000109  00000+0  00000+0 0  9991", "line2": "2 54225   0.0473 238.5153 0002093 304.5524 134.5091  1.00270910  5488"}}, "geometry": {"type": "Point", "coordinates": [-168.08574451017506, -0.0493322841334533]}}, {"type": "Feature", "properties": {"norad_id": 54259, "name": "EUTELSAT 10B", "group": "eutelsat", "lat": 0.033064620868975256, "lon": -171.07334958858198, "alt_km": 35780.848497573985, "timestamp": "2025-12-02T07:10:08.781207+00:00", "meta": {"OBJECT_NAME": "EUTELSAT 10B", "OBJECT_ID": "2022-157A", "EPOCH": "2025-12-01T12:08:49.696800", "MEAN_MOTION": 1.00264673, "ECCENTRICITY": 0.00017781, "INCLINATION": 0.0573, "RA_OF_ASC_NODE": 104.3761, "ARG_OF_PERICENTER": 67.7639, "MEAN_ANOMALY": 90.7185, "EPHEMERIS_TYPE": 0, "CLASSIFICATION_TYPE": "U", "NORAD_CAT_ID": 54259, "ELEMENT_SET_NO": 999, "REV_AT_EPOCH": 1104, "BSTAR": 0, "MEAN_MOTION_DOT": 8.9e-07, "MEAN_MOTION_DDOT": 0}, "tle": {"line1": "1 54259U 22157A   25335.50613075  .00000089  00000+0  00000+0 0  9992", "line2": "2 54259   0.0573 104.3761 0001778  67.7639  90.7185  1.00264673 11040"}}, "geometry": {"type": "Point", "coordinates": [-171.07334958858198, 0.033064620868975256]}}, {"type": "Feature", "properties": {"norad_id": 59346, "name": "EUTELSAT 36D", "group": "eutelsat", "lat": -0.01502046031196182, "lon": -145.20803526327154, "alt_km": 35786.276591131435, "timestamp": "2025-12-02T07:10:08.781218+00:00", "meta": {"OBJECT_NAME": "EUTELSAT 36D", "OBJECT_ID": "2024-059A", "EPOCH": "2025-12-01T19:07:13.782720", "MEAN_MOTION": 1.00269417, "ECCENTRICITY": 4.75e-05, "INCLINATION": 0.001, "RA_OF_ASC_NODE": 359.7672, "ARG_OF_PERICENTER": 293.5935, "MEAN_ANOMALY": 100.2453, "EPHEMERIS_TYPE": 0, "CLASSIFICATION_TYPE": "U", "NORAD_CAT_ID": 59346, "ELEMENT_SET_NO": 999, "REV_AT_EPOCH": 616, "BSTAR": 0, "MEAN_MOTION_DOT": 1.77e-06, "MEAN_MOTION_DDOT": 0}, "tle": {"line1": "1 59346U 24059A   25335.79668730  .00000177  00000+0  00000+0 0  9994", "line2": "2 59346   0.0010 359.7672 0000475 293.5935 100.2453  1.00269417  6169"}}, "geometry": {"type": "Point", "coordinates": [-145.20803526327154, -0.01502046031196182]}}]}